satname,norad_id,inclination_deg,eccentricity,mean_motion_rev_per_day,perigee_km,apogee_km,l1,l2
STARLINK-1573,46061,53.1601,0.0001108,15.3171181,469.9459387860097,471.4636421267751,1 46061U 20055AL  26199.49282405  .00001061  00000+0  45937-4 0  9999,2 46061  53.1601 225.2653 0001108  91.6808 268.4320 15.31711810329111
STARLINK-1577,46063,53.1587,5.82e-05,15.31694301,470.35837807091775,471.1555893306213,1 46063U 20055AN  26199.78181041 -.00002980  00000+0 -84331-4 0  9991,2 46063  53.1587 223.9155 0000582  72.3071 287.7994 15.31694301329151
STARLINK-1583,46064,53.159,0.0001282,15.31700743,469.85975463536033,471.6158061290507,1 46064U 20055AP  26199.46959293 -.00002066  00000+0 -54829-4 0  9993,2 46064  53.1590 225.8721 0001282  74.7973 285.3171 15.31700743329093
STARLINK-1536,46070,53.1578,8.34e-05,15.31706582,470.14917999135923,471.2915694014591,1 46070U 20055AV  26199.73188185  .00000565  00000+0  29963-4 0  9995,2 46070  53.1578 212.0362 0000834  95.2998 264.8098 15.31706582329314
STARLINK-1542,46073,53.1589,0.0001453,15.31701615,469.74003987101605,471.7303221268139,1 46073U 20055AY  26199.43000698  .00001289  00000+0  53303-4 0  9996,2 46073  53.1589 216.4118 0001453  67.8305 292.2850 15.31701615329213
STARLINK-1549,46074,53.0484,0.0002377,15.34615747,460.4361544644207,463.68798510219585,1 46074U 20055AZ  26199.43023749  .00014736  00000+0  44335-3 0  9994,2 46074  53.0484 212.8246 0002377  43.7495 316.3694 15.34615747329248
STARLINK-1551,46075,53.1598,0.000122,15.31712565,469.86698144666025,471.5380982943889,1 46075U 20055BA  26199.46188471  .00000473  00000+0  26992-4 0  9995,2 46075  53.1598 213.2306 0001220  90.2744 269.8397 15.31712565329265
STARLINK-1552,46076,53.1592,0.0001153,15.31715162,469.9051281590773,471.48446877180413,1 46076U 20055BB  26199.44783993  .00001412  00000+0  57232-4 0  9999,2 46076  53.1592 212.8787 0001153  85.9978 274.1155 15.31715162329259
STARLINK-1559,46077,53.0208,0.0004517,15.4198443,437.17329800264906,443.3330316775655,1 46077U 20055BC  26199.34833880  .00033866  00000+0  78858-3 0  9994,2 46077  53.0208 179.7561 0004517  43.0749 317.0608 15.41984430329664
STARLINK-1566,46079,53.1589,0.0001234,15.31703555,469.8842478626202,471.5745480896421,1 46079U 20055BE  26199.25673201  .00002056  00000+0  77978-4 0  9995,2 46079  53.1589 213.6217 0001234  82.0634 278.0507 15.31703555329248
STARLINK-1568,46080,53.0564,0.000295,15.57608914,392.5814743623723,396.57737705353975,1 46080U 20055BF  26199.79265303  .00028102  00000+0  37900-3 0  9996,2 46080  53.0564 122.0537 0002950 121.0129 239.1172 15.57608914330552
STARLINK-1578,46082,53.1593,0.0001075,15.31714227,469.96133588927114,471.433835325176,1 46082U 20055BH  26199.45687785  .00000537  00000+0  29055-4 0  9998,2 46082  53.1593 213.2082 0001075  88.7086 271.4039 15.31714227329267
STARLINK-1579,46083,53.1585,0.0001177,15.31708462,469.90866070670927,471.5208804135,1 46083U 20055BJ  26199.44317006  .00000478  00000+0  27172-4 0  9996,2 46083  53.1585 212.8053 0001177  79.4622 280.6512 15.31708462329260
STARLINK-1622,46128,53.0004,0.0013426,16.1976296,211.3366163079736,229.05445883786433,1 46128U 20057M   26199.77057266  .01327629  11824-4  66931-3 0  9990,2 46128  53.0004 285.2607 0013426 332.2464  27.7855 16.19762960328098
STARLINK-1623,46129,53.0354,0.0005071,15.88063683,304.3216280809038,311.10241615913856,1 46129U 20057N   26199.91668980  .00135947  00000+0  48310-3 0  9997,2 46129  53.0354 327.7978 0005071 312.5109 137.2605 15.88063683  5952
STARLINK-1596,46141,53.0319,0.0002177,15.6677989,366.65600720361726,369.59332953402554,1 46141U 20057AA  26199.74305094  .00078702  00000+0  73058-3 0  9998,2 46141  53.0319 316.3776 0002177 272.7058  87.3707 15.66779890327675
STARLINK-1597,46142,53.0362,0.0005268,15.86379419,308.9188452663966,315.96804082118797,1 46142U 20057AB  26199.91668980  .00181336  00000+0  69540-3 0  9993,2 46142  53.0362   7.7905 0005268 271.9959 190.8238 15.86379419  5907
STARLINK-1608,46146,53.1567,0.0004638,15.3978003,443.59384806129947,449.92462180882467,1 46146U 20057AF  26199.79170832  .00030168  00000+0  75705-3 0  9993,2 46146  53.1567  56.7480 0004638 116.6992 243.4488 15.39780030326308
STARLINK-1595,46159,53.0372,0.0003751,15.82917523,319.6816185618345,324.7082075630142,1 46159U 20057AU  26199.74634624  .00124229  00000+0  56713-3 0  9996,2 46159  53.0372  12.2059 0003751 250.6918 109.3698 15.82917523328140
STARLINK-1598,46160,53.0428,0.0004765,15.80966644,324.5104900659999,330.90115827743557,1 46160U 20057AV  26199.68262413  .00096715  00000+0  48562-3 0  9995,2 46160  53.0428 358.9959 0004765 313.9282  46.1345 15.80966644328318
STARLINK-1626,46167,53.0364,0.0007056,15.87006824,305.9603346064496,315.39959310584345,1 46167U 20057BC  26199.91668980  .00157420  00000+0  58695-3 0  9996,2 46167  53.0364   5.9273 0007056 291.1554 310.1442 15.87006824  5841
STARLINK-1633,46171,53.0252,0.001386,16.07622328,244.18263485402076,262.56518309369676,1 46171U 20057BG  26199.88424824  .00519479  14368-3  62002-3 0  9993,2 46171  53.0252 323.4028 0013860 323.2111  36.7969 16.07622328328832
STARLINK-1640,46173,53.0363,0.0003728,15.83232347,318.809095306774,323.8042004906474,1 46173U 20057BJ  26199.91668980  .00117099  00000+0  52735-3 0  9990,2 46173  53.0363  12.3357 0003728 260.9870 166.0954 15.83232347  5640
STARLINK-1641,46174,53.0456,0.0003678,15.69084608,359.0381325906437,363.995822056364,1 46174U 20057BK  26199.69718226  .00049673  00000+0  42303-3 0  9997,2 46174  53.0456   8.6031 0003678 291.4330  68.6294 15.69084608326936
STARLINK-1695,46329,53.0372,0.0005772,15.87403781,305.70467513940457,313.4249581165195,1 46329U 20062E   26199.91668980  .00149608  00000+0  54799-3 0  9992,2 46329  53.0372  48.8046 0005772 265.9689 203.9869 15.87403781  5941
STARLINK-1719,46331,53.0259,0.0009399,16.03511331,258.4598088418943,270.9470202531611,1 46331U 20062G   26199.87920529  .00478736  11561-3  74273-3 0  9994,2 46331  53.0259  45.5854 0009399 268.0379  91.9576 16.03511331325516
STARLINK-1759,46340,52.9984,0.001297,16.2700856,192.05867307064636,209.12389423844706,1 46340U 20062R   26199.59391086  .02841595  12006-4  78128-3 0  9991,2 46340  52.9984  34.3846 0012970 278.7954  81.1617 16.27008560325622
STARLINK-1762,46342,53.1526,0.0004349,15.41861766,437.64931307904044,443.58026338444415,1 46342U 20062T   26199.80711281  .00027271  00000+0  64008-3 0  9993,2 46342  53.1526 116.7611 0004349  45.5977 314.5384 15.41861766324544
